start=new Date('2023-02-12T00:00:00.000Z').valueOf();
sats=[{"MEAN_MOTION_DOT":"-0.00818034","LAUNCH_DATE":"2023-01-26","TIME_SYSTEM":"UTC","MEAN_MOTION_DDOT":"0.0000000000000","RA_OF_ASC_NODE":"303.4783","ARG_OF_PERICENTER":"267.2555","OBJECT_ID":"2023-013BB","COUNTRY_CODE":"US","APOAPSIS":"345.624","TLE_LINE2":"2 55380  42.9950 303.4783 0001114 267.2555 126.3926 15.74915004  3074","PERIAPSIS":"344.126","GP_ID":"225152398","DECAY_DATE":null,"SITE":"AFETR","PERIOD":"91.434","OBJECT_NAME":"STARLINK-5571","MEAN_MOTION":"15.74915004","MEAN_ELEMENT_THEORY":"SGP4","EPOCH":"2023-02-11T22:00:00.999936","SEMIMAJOR_AXIS":"6723.010","ECCENTRICITY":"0.00011140","NORAD_CAT_ID":"55380","TLE_LINE1":"1 55380U 23013BB  23042.91667824 -.00818034  00000-0 -58930-2 0  9997","CLASSIFICATION_TYPE":"U","ELEMENT_SET_NO":"999","CENTER_NAME":"EARTH","MEAN_ANOMALY":"126.3926","RCS_SIZE":"LARGE","EPHEMERIS_TYPE":"0","REV_AT_EPOCH":"307","REF_FRAME":"TEME","FILE":"3786204","OBJECT_TYPE":"PAYLOAD","BSTAR":"-0.00589300000000","INCLINATION":"42.9950"},{"EPOCH":"2023-02-11T22:00:00.999936","MEAN_MOTION":"15.75061099","MEAN_ELEMENT_THEORY":"SGP4","OBJECT_NAME":"STARLINK-5575","PERIOD":"91.425","DECAY_DATE":null,"GP_ID":"225187570","SITE":"AFETR","PERIAPSIS":"343.560","ARG_OF_PERICENTER":"263.8688","RA_OF_ASC_NODE":"303.4737","TLE_LINE2":"2 55381  42.9935 303.4737 0001338 263.8688 131.1360 15.75061099  1301","APOAPSIS":"345.359","OBJECT_ID":"2023-013BC","COUNTRY_CODE":"US","LAUNCH_DATE":"2023-01-26","MEAN_MOTION_DOT":"-0.00812739","TIME_SYSTEM":"UTC","MEAN_MOTION_DDOT":"0.0000000000000","BSTAR":"-0.00581310000000","INCLINATION":"42.9935","FILE":"3786577","OBJECT_TYPE":"PAYLOAD","REF_FRAME":"TEME","REV_AT_EPOCH":"130","MEAN_ANOMALY":"131.1360","EPHEMERIS_TYPE":"0","RCS_SIZE":"MEDIUM","CENTER_NAME":"EARTH","ELEMENT_SET_NO":"999","CLASSIFICATION_TYPE":"U","TLE_LINE1":"1 55381U 23013BC  23042.91667824 -.00812739  00000-0 -58131-2 0  9997","NORAD_CAT_ID":"55381","SEMIMAJOR_AXIS":"6722.594","ECCENTRICITY":"0.00013380"},{"EPOCH":"2023-02-11T22:00:00.999936","PERIOD":"91.427","OBJECT_NAME":"STARLINK-5576","MEAN_ELEMENT_THEORY":"SGP4","MEAN_MOTION":"15.75023662","PERIAPSIS":"343.596","SITE":"AFETR","GP_ID":"225186819","DECAY_DATE":null,"MEAN_MOTION_DDOT":"0.0000000000000","TIME_SYSTEM":"UTC","LAUNCH_DATE":"2023-01-26","MEAN_MOTION_DOT":"-0.00804905","OBJECT_ID":"2023-013BD","COUNTRY_CODE":"US","APOAPSIS":"345.535","TLE_LINE2":"2 55382  42.9949 303.4805 0001442 263.1252 129.7558 15.75023662  1305","ARG_OF_PERICENTER":"263.1252","RA_OF_ASC_NODE":"303.4805","OBJECT_TYPE":"PAYLOAD","FILE":"3786577","INCLINATION":"42.9949","BSTAR":"-0.00576090000000","REV_AT_EPOCH":"130","REF_FRAME":"TEME","ELEMENT_SET_NO":"999","CENTER_NAME":"EARTH","RCS_SIZE":"LARGE","EPHEMERIS_TYPE":"0","MEAN_ANOMALY":"129.7558","ECCENTRICITY":"0.00014420","SEMIMAJOR_AXIS":"6722.701","TLE_LINE1":"1 55382U 23013BD  23042.91667824 -.00804905  00000-0 -57609-2 0  9993","CLASSIFICATION_TYPE":"U","NORAD_CAT_ID":"55382"},{"OBJECT_TYPE":"PAYLOAD","FILE":"3786205","INCLINATION":"42.9933","BSTAR":"-0.00587040000000","REV_AT_EPOCH":"307","REF_FRAME":"TEME","ELEMENT_SET_NO":"999","CENTER_NAME":"EARTH","RCS_SIZE":"LARGE","EPHEMERIS_TYPE":"0","MEAN_ANOMALY":"143.0337","ECCENTRICITY":"0.00009160","SEMIMAJOR_AXIS":"6722.537","TLE_LINE1":"1 55383U 23013BE  23042.91667824 -.00820571  00000-0 -58704-2 0  9998","CLASSIFICATION_TYPE":"U","NORAD_CAT_ID":"55383","EPOCH":"2023-02-11T22:00:00.999936","PERIOD":"91.424","OBJECT_NAME":"STARLINK-5531","MEAN_ELEMENT_THEORY":"SGP4","MEAN_MOTION":"15.75081134","PERIAPSIS":"343.787","SITE":"AFETR","GP_ID":"225152850","DECAY_DATE":null,"MEAN_MOTION_DDOT":"0.0000000000000","TIME_SYSTEM":"UTC","MEAN_MOTION_DOT":"-0.00820571","LAUNCH_DATE":"2023-01-26","COUNTRY_CODE":"US","OBJECT_ID":"2023-013BE","APOAPSIS":"345.018","TLE_LINE2":"2 55383  42.9933 303.4720 0000916 252.4561 143.0337 15.75081134  3072","RA_OF_ASC_NODE":"303.4720","ARG_OF_PERICENTER":"252.4561"},{"OBJECT_NAME":"STARLINK-5537","PERIOD":"91.427","MEAN_MOTION":"15.75025049","MEAN_ELEMENT_THEORY":"SGP4","EPOCH":"2023-02-11T22:00:00.999936","LAUNCH_DATE":"2023-01-26","MEAN_MOTION_DOT":"-0.00783463","MEAN_MOTION_DDOT":"0.0000000000000","TIME_SYSTEM":"UTC","ARG_OF_PERICENTER":"266.3162","RA_OF_ASC_NODE":"303.4774","TLE_LINE2":"2 55384  42.9942 303.4774 0001735 266.3162 127.6182 15.75025049  1306","APOAPSIS":"345.728","OBJECT_ID":"2023-013BF","COUNTRY_CODE":"US","PERIAPSIS":"343.396","GP_ID":"225187320","DECAY_DATE":null,"SITE":"AFETR","REF_FRAME":"TEME","REV_AT_EPOCH":"130","FILE":"3786577","OBJECT_TYPE":"PAYLOAD","BSTAR":"-0.00559200000000","INCLINATION":"42.9942","SEMIMAJOR_AXIS":"6722.697","ECCENTRICITY":"0.00017350","NORAD_CAT_ID":"55384","TLE_LINE1":"1 55384U 23013BF  23042.91667824 -.00783463  00000-0 -55920-2 0  9994","CLASSIFICATION_TYPE":"U","CENTER_NAME":"EARTH","ELEMENT_SET_NO":"999","MEAN_ANOMALY":"127.6182","EPHEMERIS_TYPE":"0","RCS_SIZE":"LARGE"},{"SITE":"AFETR","DECAY_DATE":null,"GP_ID":"225152847","PERIAPSIS":"343.214","APOAPSIS":"345.549","TLE_LINE2":"2 55385  42.9934 303.4677 0001737 259.4846 137.6135 15.75088394  3071","OBJECT_ID":"2023-013BG","COUNTRY_CODE":"US","RA_OF_ASC_NODE":"303.4677","ARG_OF_PERICENTER":"259.4846","MEAN_MOTION_DDOT":"0.0000000000000","TIME_SYSTEM":"UTC","LAUNCH_DATE":"2023-01-26","MEAN_MOTION_DOT":"-0.00796692","EPOCH":"2023-02-11T22:00:00.999936","MEAN_ELEMENT_THEORY":"SGP4","MEAN_MOTION":"15.75088394","OBJECT_NAME":"STARLINK-5556","PERIOD":"91.423","EPHEMERIS_TYPE":"0","RCS_SIZE":"LARGE","MEAN_ANOMALY":"137.6135","CENTER_NAME":"EARTH","ELEMENT_SET_NO":"999","TLE_LINE1":"1 55385U 23013BG  23042.91667824 -.00796692  00000-0 -56796-2 0  9995","CLASSIFICATION_TYPE":"U","NORAD_CAT_ID":"55385","ECCENTRICITY":"0.00017370","SEMIMAJOR_AXIS":"6722.517","INCLINATION":"42.9934","BSTAR":"-0.00567960000000","OBJECT_TYPE":"PAYLOAD","FILE":"3786205","REF_FRAME":"TEME","REV_AT_EPOCH":"307"},{"MEAN_MOTION":"15.75091902","MEAN_ELEMENT_THEORY":"SGP4","OBJECT_NAME":"STARLINK-5555","PERIOD":"91.423","EPOCH":"2023-02-11T22:00:00.999936","ARG_OF_PERICENTER":"263.9328","RA_OF_ASC_NODE":"303.4690","APOAPSIS":"345.342","TLE_LINE2":"2 55386  42.9931 303.4690 0001444 263.9328 132.6064 15.75091902  1303","COUNTRY_CODE":"US","OBJECT_ID":"2023-013BH","MEAN_MOTION_DOT":"-0.00809515","LAUNCH_DATE":"2023-01-26","MEAN_MOTION_DDOT":"0.0000000000000","TIME_SYSTEM":"UTC","DECAY_DATE":null,"GP_ID":"225186319","SITE":"AFETR","PERIAPSIS":"343.401","REF_FRAME":"TEME","REV_AT_EPOCH":"130","BSTAR":"-0.00577970000000","INCLINATION":"42.9931","FILE":"3786577","OBJECT_TYPE":"PAYLOAD","TLE_LINE1":"1 55386U 23013BH  23042.91667824 -.00809515  00000-0 -57797-2 0  9997","NORAD_CAT_ID":"55386","CLASSIFICATION_TYPE":"U","SEMIMAJOR_AXIS":"6722.507","ECCENTRICITY":"0.00014440","MEAN_ANOMALY":"132.6064","EPHEMERIS_TYPE":"0","RCS_SIZE":"LARGE","CENTER_NAME":"EARTH","ELEMENT_SET_NO":"999"},{"EPOCH":"2023-02-11T22:00:00.999936","PERIOD":"91.728","OBJECT_NAME":"STARLINK-5077","MEAN_MOTION":"15.69854957","MEAN_ELEMENT_THEORY":"SGP4","PERIAPSIS":"356.925","DECAY_DATE":null,"GP_ID":"225186569","SITE":"AFWTR","LAUNCH_DATE":"2023-01-31","MEAN_MOTION_DOT":"0.00154993","MEAN_MOTION_DDOT":"0.0000000000000","TIME_SYSTEM":"UTC","ARG_OF_PERICENTER":"253.9839","RA_OF_ASC_NODE":"58.1193","COUNTRY_CODE":"US","OBJECT_ID":"2023-014A","APOAPSIS":"361.703","TLE_LINE2":"2 55391  69.9990  58.1193 0003546 253.9839 232.3963 15.69854957  1302","FILE":"3786577","OBJECT_TYPE":"PAYLOAD","BSTAR":"0.00127070000000","INCLINATION":"69.9990","REV_AT_EPOCH":"130","REF_FRAME":"TEME","ELEMENT_SET_NO":"999","CENTER_NAME":"EARTH","MEAN_ANOMALY":"232.3963","RCS_SIZE":"LARGE","EPHEMERIS_TYPE":"0","SEMIMAJOR_AXIS":"6737.449","ECCENTRICITY":"0.00035460","TLE_LINE1":"1 55391U 23014A   23042.91667824  .00154993  00000-0  12707-2 0  9997","CLASSIFICATION_TYPE":"U","NORAD_CAT_ID":"55391"},{"NORAD_CAT_ID":"55392","TLE_LINE1":"1 55392U 23014B   23042.91667824  .00081292  00000-0  67195-3 0  9991","CLASSIFICATION_TYPE":"U","ECCENTRICITY":"0.00031820","SEMIMAJOR_AXIS":"6737.315","RCS_SIZE":"MEDIUM","EPHEMERIS_TYPE":"0","MEAN_ANOMALY":"230.6567","ELEMENT_SET_NO":"999","CENTER_NAME":"EARTH","REV_AT_EPOCH":"130","REF_FRAME":"TEME","INCLINATION":"70.0021","BSTAR":"0.00067195000000","OBJECT_TYPE":"PAYLOAD","FILE":"3786577","OBJECT_ID":"2023-014B","COUNTRY_CODE":"US","TLE_LINE2":"2 55392  70.0021  58.1043 0003182 268.9521 230.6567 15.69901618  1303","APOAPSIS":"361.324","ARG_OF_PERICENTER":"268.9521","RA_OF_ASC_NODE":"58.1043","TIME_SYSTEM":"UTC","MEAN_MOTION_DDOT":"0.0000000000000","MEAN_MOTION_DOT":"0.00081292","LAUNCH_DATE":"2023-01-31","SITE":"AFWTR","DECAY_DATE":null,"GP_ID":"225187821","PERIAPSIS":"357.037","MEAN_ELEMENT_THEORY":"SGP4","MEAN_MOTION":"15.69901618","PERIOD":"91.725","OBJECT_NAME":"STARLINK-5085","EPOCH":"2023-02-11T22:00:00.999936"},{"EPHEMERIS_TYPE":"0","RCS_SIZE":"LARGE","MEAN_ANOMALY":"232.0531","CENTER_NAME":"EARTH","ELEMENT_SET_NO":"999","TLE_LINE1":"1 55393U 23014C   23042.91667824  .00135859  00000-0  11161-2 0  9992","NORAD_CAT_ID":"55393","CLASSIFICATION_TYPE":"U","ECCENTRICITY":"0.00035610","SEMIMAJOR_AXIS":"6737.418","INCLINATION":"69.9990","BSTAR":"0.00111610000000","OBJECT_TYPE":"PAYLOAD","FILE":"3786577","REF_FRAME":"TEME","REV_AT_EPOCH":"130","SITE":"AFWTR","GP_ID":"225187571","DECAY_DATE":null,"PERIAPSIS":"356.883","TLE_LINE2":"2 55393  69.9990  58.1205 0003561 253.1286 232.0531 15.69865927  1300","APOAPSIS":"361.682","OBJECT_ID":"2023-014C","COUNTRY_CODE":"US","ARG_OF_PERICENTER":"253.1286","RA_OF_ASC_NODE":"58.1205","MEAN_MOTION_DDOT":"0.0000000000000","TIME_SYSTEM":"UTC","MEAN_MOTION_DOT":"0.00135859","LAUNCH_DATE":"2023-01-31","EPOCH":"2023-02-11T22:00:00.999936","MEAN_ELEMENT_THEORY":"SGP4","MEAN_MOTION":"15.69865927","OBJECT_NAME":"STARLINK-4786","PERIOD":"91.728"}];
